#aV2016  5 17  0  0  0.00000000     288 DD+AD WGS84 FIT  NGA
## 1897 172800.00000000   300.00000000 57525 0.0000000000000
+   31     1  2  3  5  6  7  8  9 10 11 12 13 14 15 16 17 18
+         19 20 21 22 23 24 25 26 27 28 29 30 31 32  0  0  0
+          0  0  0  0  0  0  0  0  0  0  0  0  0  0  0  0  0
+          0  0  0  0  0  0  0  0  0  0  0  0  0  0  0  0  0
+          0  0  0  0  0  0  0  0  0  0  0  0  0  0  0  0  0
++         2  2  2  2  2  2  2  2  2  2  2  2  2  2  2  2  2
++         2  2  2  2  2  2  2  2  2  2  2  2  2  2  0  0  0
++         0  0  0  0  0  0  0  0  0  0  0  0  0  0  0  0  0
++         0  0  0  0  0  0  0  0  0  0  0  0  0  0  0  0  0
++         0  0  0  0  0  0  0  0  0  0  0  0  0  0  0  0  0
%c cc cc ccc ccc cccc cccc cccc cccc ccccc ccccc ccccc ccccc
%c cc cc ccc ccc cccc cccc cccc cccc ccccc ccccc ccccc ccccc
%f  0.0000000  0.000000000  0.00000000000  0.000000000000000
%f  0.0000000  0.000000000  0.00000000000  0.000000000000000
%i    0    0    0    0      0      0      0      0         0
%i    0    0    0    0      0      0      0      0         0
/*      NGA, ST. LOUIS,MO.                                  
/*   EPHEMERIS COMPUTED FROM 2 DAYS OF DATA                 
/*   EPOCHA v2.4 SMOOTHER                                   
/*   G1762 IERS2010 SATAF SATAPC                            
*  2016  5 17 12 30  0.00000000
P  1 -19925.227946  -9800.015868  14669.224068     20.662743                    
V  1  -9593.934059 -16117.868192 -23442.349013      0.012137                    
P  2  14163.283087  22387.657722   4316.907153    591.320609                    
V  2  -5369.492733  -1945.939145  30472.329572     -0.022347                    
P  3 -16504.739622   1555.946367  20759.759620    -58.553896                    
V  3   9582.727109 -24558.602083   9457.640035     -0.037443                    
P  5   6963.540786  17835.689333 -18392.149077   -120.162126                    
V  5 -10598.273917  20868.719423  16480.337192      0.030504                    
P  6   1712.225994  20977.687849  16212.628149    191.479977                    
V  6 -13825.095458 -15319.565642  21302.583570      0.055010                    
P  7 -13988.358147   6114.639256 -21628.290232    454.081870                    
V  7 -16001.593964 -22654.230029   3523.897513     -0.022193                    
P  8 -21639.727953  -6881.678923 -13756.780561    -35.461153                    
V  8  17127.449585  -4311.133143 -24655.357353     -0.013944                    
P  9 -24488.289491   7876.027172  -6661.338307    130.770790                    
V  9  -8732.674020  -1736.629013  30099.228193      0.073334                    
P 10  10479.717920 -24365.558637   -218.374248    -24.395147                    
V 10   2575.915300   1417.938900 -31763.981981     -0.089697                    
P 11 -23949.830733  -9929.593576   5298.659528   -647.202932                    
V 11  -3856.010111  -7950.601895 -29232.212951     -0.014476                    
P 12  14658.047810   2644.528077  21836.673903    379.956198                    
V 12 -11977.717106  25299.863894   5155.651041      0.012209                    
P 13  14383.161393  12564.350818 -18549.441071    -18.430199                    
V 13 -23281.600904   1493.970888 -17244.789282     -0.026180                    
P 14   7704.551028 -14825.225418  20872.774611    -14.309920                    
V 14  25953.062970   -253.377686 -10038.390227     -0.020743                    
P 15  23896.307246   4220.555264 -11315.931291   -311.267283                    
V 15 -13380.534840   5363.387186 -26200.620416     -0.016571                    
P 16  -4424.896341 -18232.090800 -18738.942708    -17.012769                    
V 16  11875.247290 -20487.153912  17600.361265      0.026015                    
P 17 -12215.325250  13961.257930  19265.953439   -203.739633                    
V 17 -23810.775026    605.013452 -15987.035537     -0.001895                    
P 18  15717.606469 -18020.675332 -10740.660567    516.544610                    
V 18  -1827.772702  14967.994742 -26720.901216      0.041460                    
P 19  -2023.132526  14826.296915  21724.068604   -525.682095                    
V 19 -28091.655524    653.042749  -2665.501890      0.000428                    
P 20  16010.724526   2387.080694 -21210.747894    412.757962                    
V 20  -8049.444601  25486.501564  -3185.277108      0.023685                    
P 21  11669.254272 -10043.504479 -20889.362756   -522.941325                    
V 21  17819.753175  22120.340808   -900.267443     -0.012703                    
P 22 -13770.493177  -8799.509061  21169.220229    340.529177                    
V 22  10129.942627 -24488.097513  -3759.500249     -0.081694                    
P 23 -26598.710469    793.878185   3391.311299   -174.156376                    
V 23   3655.385333  -3305.667393  30761.983939     -0.016480                    
P 24  20444.285944  12311.822765  11800.413354    -17.182877                    
V 24   7301.813510  13377.454260 -26282.301286     -0.006070                    
P 25  17092.090313 -10605.940518  17118.351451   -173.023708                    
V 25  -7250.744208  20843.551034  20195.452748     -0.070466                    
P 26   2277.291233 -24299.830247 -10426.593525   -366.939505                    
V 26   7446.757452 -11243.050116  27891.497786     -0.123208                    
P 27 -11979.002431 -12446.783623 -20253.284558     93.437069                    
V 27  25263.832086  -4026.620336 -12321.524090      0.040620                    
P 28 -12526.690850  23363.294350   -481.554501    523.632738                    
V 28  -1102.995709  -2125.128256 -32407.053670      0.026419                    
P 29  25909.631702  -4255.741760  -3820.956642    657.152390                    
V 29   4998.580356   1975.093787  31665.019587     -0.000783                    
P 30  -7010.321852  15675.319651 -20246.373085    125.938103                    
V 30 -14968.203137 -20976.874180 -11159.852246      0.030906                    
P 31  -3551.986903 -22031.669365  14221.739943    268.566728                    
V 31  12054.383372  13544.542487  24518.097461     -0.018880                    
P 32   9872.303609 -15036.435555  19545.024383     -7.488330                    
V 32  24769.930359  -1866.952446 -13964.259055     -0.059831                    
EOF
